{
  "type": "FeatureCollection",
  "features": [
    {
      "type": "Feature",
      "properties": {
        "norad_id": 35616,
        "name": "IRIDIUM 33 DEB",
        "group": "iridium-33-debris",
        "lat": -3.3287508107337134,
        "lon": -16.841653950306185,
        "alt_km": 633.1472901712023,
        "timestamp": "2025-12-17T23:38:07.238967+00:00",
        "meta_object_name": "IRIDIUM 33 DEB",
        "meta_object_id": "1997-051QN",
        "meta_epoch": "2025-12-16T10:22:36.830208",
        "meta_mean_motion": 14.81911189,
        "meta_eccentricity": 0.00107405,
        "meta_inclination": 86.3541,
        "meta_ra_of_asc_node": 344.0794,
        "meta_arg_of_pericenter": 150.4994,
        "meta_mean_anomaly": 209.6837,
        "meta_ephemeris_type": 0,
        "meta_classification_type": "U",
        "meta_norad_cat_id": 35616,
        "meta_element_set_no": 999,
        "meta_rev_at_epoch": 87629,
        "meta_bstar": 0.0011277405,
        "meta_mean_motion_dot": 8.962e-05,
        "meta_mean_motion_ddot": 0,
        "tle_line1": "1 35616U 97051QN  25350.43237072  .00008962  00000+0  11277-2 0  9990",
        "tle_line2": "2 35616  86.3541 344.0794 0010740 150.4994 209.6837 14.81911189876295"
      },
      "geometry": {
        "type": "Point",
        "coordinates": [
          -16.841653950306185,
          -3.3287508107337134
        ]
      }
    },
    {
      "type": "Feature",
      "properties": {
        "norad_id": 35618,
        "name": "IRIDIUM 33 DEB",
        "group": "iridium-33-debris",
        "lat": -74.8075356797127,
        "lon": -22.410174874340175,
        "alt_km": 721.4326487932431,
        "timestamp": "2025-12-17T23:38:07.238977+00:00",
        "meta_object_name": "IRIDIUM 33 DEB",
        "meta_object_id": "1997-051QQ",
        "meta_epoch": "2025-12-13T19:06:39.662496",
        "meta_mean_motion": 14.52305973,
        "meta_eccentricity": 0.00288889,
        "meta_inclination": 86.3427,
        "meta_ra_of_asc_node": 353.0427,
        "meta_arg_of_pericenter": 17.6332,
        "meta_mean_anomaly": 342.5869,
        "meta_ephemeris_type": 0,
        "meta_classification_type": "U",
        "meta_norad_cat_id": 35618,
        "meta_element_set_no": 999,
        "meta_rev_at_epoch": 65409,
        "meta_bstar": 0.0005678553,
        "meta_mean_motion_dot": 2.341e-05,
        "meta_mean_motion_ddot": 0,
        "tle_line1": "1 35618U 97051QQ  25347.79629239  .00002341  00000+0  56786-3 0  9997",
        "tle_line2": "2 35618  86.3427 353.0427 0028888  17.6332 342.5869 14.52305973654095"
      },
      "geometry": {
        "type": "Point",
        "coordinates": [
          -22.410174874340175,
          -74.8075356797127
        ]
      }
    },
    {
      "type": "Feature",
      "properties": {
        "norad_id": 35620,
        "name": "IRIDIUM 33 DEB",
        "group": "iridium-33-debris",
        "lat": 1.9518502239495519,
        "lon": -144.6352888481907,
        "alt_km": 816.8798977430006,
        "timestamp": "2025-12-17T23:38:07.238988+00:00",
        "meta_object_name": "IRIDIUM 33 DEB",
        "meta_object_id": "1997-051QS",
        "meta_epoch": "2025-12-17T08:35:52.272096",
        "meta_mean_motion": 14.38205067,
        "meta_eccentricity": 0.01398919,
        "meta_inclination": 86.3905,
        "meta_ra_of_asc_node": 215.5056,
        "meta_arg_of_pericenter": 243.6139,
        "meta_mean_anomaly": 115.0644,
        "meta_ephemeris_type": 0,
        "meta_classification_type": "U",
        "meta_norad_cat_id": 35620,
        "meta_element_set_no": 999,
        "meta_rev_at_epoch": 60032,
        "meta_bstar": 0.0036336563,
        "meta_mean_motion_dot": 0.00012391,
        "meta_mean_motion_ddot": 0,
        "tle_line1": "1 35620U 97051QS  25351.35824389  .00012391  00000+0  36337-2 0  9995",
        "tle_line2": "2 35620  86.3905 215.5056 0139891 243.6139 115.0644 14.38205067600320"
      },
      "geometry": {
        "type": "Point",
        "coordinates": [
          -144.6352888481907,
          1.9518502239495519
        ]
      }
    },
    {
      "type": "Feature",
      "properties": {
        "norad_id": 35622,
        "name": "IRIDIUM 33 DEB",
        "group": "iridium-33-debris",
        "lat": -85.7888572248832,
        "lon": 145.44341200745095,
        "alt_km": 554.7248617658215,
        "timestamp": "2025-12-17T23:38:07.238998+00:00",
        "meta_object_name": "IRIDIUM 33 DEB",
        "meta_object_id": "1997-051QU",
        "meta_epoch": "2025-12-14T12:14:43.972224",
        "meta_mean_motion": 15.04969242,
        "meta_eccentricity": 0.00054886,
        "meta_inclination": 86.2028,
        "meta_ra_of_asc_node": 262.7313,
        "meta_arg_of_pericenter": 323.1514,
        "meta_mean_anomaly": 209.8665,
        "meta_ephemeris_type": 0,
        "meta_classification_type": "U",
        "meta_norad_cat_id": 35622,
        "meta_element_set_no": 999,
        "meta_rev_at_epoch": 87386,
        "meta_bstar": 0.0048535985,
        "meta_mean_motion_dot": 0.00069411,
        "meta_mean_motion_ddot": 0,
        "tle_line1": "1 35622U 97051QU  25348.51023116  .00069411  00000+0  48536-2 0  9999",
        "tle_line2": "2 35622  86.2028 262.7313 0005488 323.1514 209.8665 15.04969242873864"
      },
      "geometry": {
        "type": "Point",
        "coordinates": [
          145.44341200745095,
          -85.7888572248832
        ]
      }
    },
    {
      "type": "Feature",
      "properties": {
        "norad_id": 35628,
        "name": "IRIDIUM 33 DEB",
        "group": "iridium-33-debris",
        "lat": 68.59274183859098,
        "lon": 177.38506844869138,
        "alt_km": 667.9462732035945,
        "timestamp": "2025-12-17T23:38:07.239008+00:00",
        "meta_object_name": "IRIDIUM 33 DEB",
        "meta_object_id": "1997-051RA",
        "meta_epoch": "2025-12-16T07:51:32.046336",
        "meta_mean_motion": 14.67635018,
        "meta_eccentricity": 0.00100441,
        "meta_inclination": 86.3573,
        "meta_ra_of_asc_node": 7.4758,
        "meta_arg_of_pericenter": 329.6051,
        "meta_mean_anomaly": 30.458,
        "meta_ephemeris_type": 0,
        "meta_classification_type": "U",
        "meta_norad_cat_id": 35628,
        "meta_element_set_no": 999,
        "meta_rev_at_epoch": 86499,
        "meta_bstar": 0.00094948025,
        "meta_mean_motion_dot": 5.421e-05,
        "meta_mean_motion_ddot": 0,
        "tle_line1": "1 35628U 97051RA  25350.32745424  .00005421  00000+0  94948-3 0  9990",
        "tle_line2": "2 35628  86.3573   7.4758 0010044 329.6051  30.4580 14.67635018864991"
      },
      "geometry": {
        "type": "Point",
        "coordinates": [
          177.38506844869138,
          68.59274183859098
        ]
      }
    },
    {
      "type": "Feature",
      "properties": {
        "norad_id": 35631,
        "name": "IRIDIUM 33 DEB",
        "group": "iridium-33-debris",
        "lat": -15.99643353671964,
        "lon": 17.673833418437578,
        "alt_km": 745.644792417359,
        "timestamp": "2025-12-17T23:38:07.239019+00:00",
        "meta_object_name": "IRIDIUM 33 DEB",
        "meta_object_id": "1997-051RD",
        "meta_epoch": "2025-12-17T02:23:33.513216",
        "meta_mean_motion": 14.47323174,
        "meta_eccentricity": 0.00191499,
        "meta_inclination": 86.3669,
        "meta_ra_of_asc_node": 19.0985,
        "meta_arg_of_pericenter": 104.9158,
        "meta_mean_anomaly": 310.5558,
        "meta_ephemeris_type": 0,
        "meta_classification_type": "U",
        "meta_norad_cat_id": 35631,
        "meta_element_set_no": 999,
        "meta_rev_at_epoch": 87260,
        "meta_bstar": 0.00028519596,
        "meta_mean_motion_dot": 1.066e-05,
        "meta_mean_motion_ddot": 0,
        "tle_line1": "1 35631U 97051RD  25351.09969344  .00001066  00000+0  28520-3 0  9992",
        "tle_line2": "2 35631  86.3669  19.0985 0019149 104.9158 310.5558 14.47323174872608"
      },
      "geometry": {
        "type": "Point",
        "coordinates": [
          17.673833418437578,
          -15.99643353671964
        ]
      }
    },
    {
      "type": "Feature",
      "properties": {
        "norad_id": 35680,
        "name": "IRIDIUM 33 DEB",
        "group": "iridium-33-debris",
        "lat": 3.1287190275150345,
        "lon": -161.01253911001504,
        "alt_km": 813.5164107684541,
        "timestamp": "2025-12-17T23:38:07.239028+00:00",
        "meta_object_name": "IRIDIUM 33 DEB",
        "meta_object_id": "1997-051RJ",
        "meta_epoch": "2025-12-14T08:38:54.081024",
        "meta_mean_motion": 14.20954301,
        "meta_eccentricity": 0.01504449,
        "meta_inclination": 86.1029,
        "meta_ra_of_asc_node": 20.8049,
        "meta_arg_of_pericenter": 273.3107,
        "meta_mean_anomaly": 95.5624,
        "meta_ephemeris_type": 0,
        "meta_classification_type": "U",
        "meta_norad_cat_id": 35680,
        "meta_element_set_no": 999,
        "meta_rev_at_epoch": 60724,
        "meta_bstar": 0.0038932879,
        "meta_mean_motion_dot": 9.473e-05,
        "meta_mean_motion_ddot": 0,
        "tle_line1": "1 35680U 97051RJ  25348.36034816  .00009473  00000+0  38933-2 0  9997",
        "tle_line2": "2 35680  86.1029  20.8049 0150444 273.3107  95.5624 14.20954301607243"
      },
      "geometry": {
        "type": "Point",
        "coordinates": [
          -161.01253911001504,
          3.1287190275150345
        ]
      }
    }
  ]
}